{
    "links": {
        "self": "http://www.neowsapp.com/rest/v1/neo/3764803?api_key=iIulBulltgU6a56xZRHN4H3l9WmuAYTsLGpBGhQ2"
    },
    "id": "3764803",
    "neo_reference_id": "3764803",
    "name": "(2016 WR7)",
    "designation": "2016 WR7",
    "nasa_jpl_url": "http://ssd.jpl.nasa.gov/sbdb.cgi?sstr=3764803",
    "absolute_magnitude_h": 24.6,
    "estimated_diameter": {
        "kilometers": {
            "estimated_diameter_min": 0.0319561887,
            "estimated_diameter_max": 0.0714562102
        },
        "meters": {
            "estimated_diameter_min": 31.9561886721,
            "estimated_diameter_max": 71.4562101727
        },
        "miles": {
            "estimated_diameter_min": 0.0198566489,
            "estimated_diameter_max": 0.0444008168
        },
        "feet": {
            "estimated_diameter_min": 104.8431420431,
            "estimated_diameter_max": 234.436392583
        }
    },
    "is_potentially_hazardous_asteroid": false,
    "close_approach_data": [
        {
            "close_approach_date": "2014-12-17",
            "close_approach_date_full": "2014-Dec-17 11:47",
            "epoch_date_close_approach": 1418816820000,
            "relative_velocity": {
                "kilometers_per_second": "12.7481929698",
                "kilometers_per_hour": "45893.4946913747",
                "miles_per_hour": "28516.4328542045"
            },
            "miss_distance": {
                "astronomical": "0.3913893137",
                "lunar": "152.2504430293",
                "kilometers": "58551007.670281819",
                "miles": "36381909.1147703422"
            },
            "orbiting_body": "Earth"
        },
        {
            "close_approach_date": "2016-11-27",
            "close_approach_date_full": "2016-Nov-27 15:21",
            "epoch_date_close_approach": 1480260060000,
            "relative_velocity": {
                "kilometers_per_second": "10.5713879275",
                "kilometers_per_hour": "38056.9965390698",
                "miles_per_hour": "23647.1376550681"
            },
            "miss_distance": {
                "astronomical": "0.0958184445",
                "lunar": "37.2733749105",
                "kilometers": "14334235.203913215",
                "miles": "8906880.738163767"
            },
            "orbiting_body": "Earth"
        },
        {
            "close_approach_date": "2018-11-13",
            "close_approach_date_full": "2018-Nov-13 08:38",
            "epoch_date_close_approach": 1542098280000,
            "relative_velocity": {
                "kilometers_per_second": "15.4458243834",
                "kilometers_per_hour": "55604.9677802238",
                "miles_per_hour": "34550.7645632174"
            },
            "miss_distance": {
                "astronomical": "0.2613015234",
                "lunar": "101.6462926026",
                "kilometers": "39090151.328395158",
                "miles": "24289493.7166748604"
            },
            "orbiting_body": "Earth"
        }
    ],
    "orbital_data": {
        "orbit_id": "4",
        "orbit_determination_date": "2017-04-06 08:21:56",
        "first_observation_date": "2016-11-24",
        "last_observation_date": "2016-12-01",
        "data_arc_in_days": 7,
        "observations_used": 37,
        "orbit_uncertainty": "8",
        "minimum_orbit_intersection": ".0719498",
        "jupiter_tisserand_invariant": "4.308",
        "epoch_osculation": "2457717.5",
        "eccentricity": ".347417019040777",
        "semi_major_axis": "1.561661683389866",
        "inclination": "18.18716605311035",
        "ascending_node_longitude": "237.9490948441091",
        "orbital_period": "712.8183298244315",
        "perihelion_distance": "1.019113836596357",
        "perihelion_argument": "214.1646992790049",
        "aphelion_distance": "2.104209530183375",
        "perihelion_time": "2457747.593796084819",
        "mean_anomaly": "344.8015039214785",
        "mean_motion": ".5050375178885602",
        "equinox": "J2000",
        "orbit_class": {
            "orbit_class_type": "AMO",
            "orbit_class_description": "Near-Earth asteroid orbits similar to that of 1221 Amor",
            "orbit_class_range": "1.017 AU < q (perihelion) < 1.3 AU"
        }
    },
    "is_sentry_object": false
}